start=new Date('2021-09-16T00:00:00.000Z').valueOf();
sats=[{"ELEMENT_SET_NO":"999","BSTAR":"0.00006905800000","ARG_OF_PERICENTER":"66.0432","TLE_LINE1":"1 45562U 20025AH  21258.94591173  .00000747  00000-0  69058-4 0  9998","COUNTRY_CODE":"US","PERIOD":"95.593","APOAPSIS":"548.353","RCS_SIZE":"LARGE","FILE":"3116597","MEAN_MOTION":"15.06391198","NORAD_CAT_ID":"45562","TIME_SYSTEM":"UTC","INCLINATION":"53.0532","EPOCH":"2021-09-15T22:42:06.773472","REF_FRAME":"TEME","GP_ID":"184787136","MEAN_ANOMALY":"294.0725","EPHEMERIS_TYPE":"0","PERIAPSIS":"546.128","MEAN_MOTION_DOT":"0.00000747","MEAN_ELEMENT_THEORY":"SGP4","MEAN_MOTION_DDOT":"0.0000000000000","DECAY_DATE":null,"OBJECT_ID":"2020-025AH","OBJECT_TYPE":"PAYLOAD","LAUNCH_DATE":"2020-04-22","RA_OF_ASC_NODE":"229.7672","ECCENTRICITY":"0.00016070","CLASSIFICATION_TYPE":"U","OBJECT_NAME":"STARLINK-1354","TLE_LINE2":"2 45562  53.0532 229.7672 0001607  66.0432 294.0725 15.06391198 78829","SITE":"AFETR","CENTER_NAME":"EARTH","REV_AT_EPOCH":"7882","SEMIMAJOR_AXIS":"6925.376"},{"FILE":"3116597","INCLINATION":"53.0544","NORAD_CAT_ID":"45563","MEAN_MOTION":"15.06386837","TIME_SYSTEM":"UTC","EPOCH":"2021-09-15T15:05:39.285888","REF_FRAME":"TEME","GP_ID":"184785887","MEAN_ANOMALY":"297.0620","PERIAPSIS":"546.259","EPHEMERIS_TYPE":"0","MEAN_ELEMENT_THEORY":"SGP4","MEAN_MOTION_DOT":"-0.00000569","BSTAR":"-0.00001929700000","ELEMENT_SET_NO":"999","ARG_OF_PERICENTER":"63.0516","PERIOD":"95.593","TLE_LINE1":"1 45563U 20025AJ  21258.62892692 -.00000569  00000-0 -19297-4 0  9998","COUNTRY_CODE":"US","APOAPSIS":"548.249","RCS_SIZE":"LARGE","RA_OF_ASC_NODE":"231.1879","LAUNCH_DATE":"2020-04-22","ECCENTRICITY":"0.00014370","CLASSIFICATION_TYPE":"U","OBJECT_NAME":"STARLINK-1355","TLE_LINE2":"2 45563  53.0544 231.1879 0001437  63.0516 297.0620 15.06386837 78775","CENTER_NAME":"EARTH","SITE":"AFETR","SEMIMAJOR_AXIS":"6925.389","REV_AT_EPOCH":"7877","MEAN_MOTION_DDOT":"0.0000000000000","DECAY_DATE":null,"OBJECT_ID":"2020-025AJ","OBJECT_TYPE":"PAYLOAD"},{"NORAD_CAT_ID":"45564","TIME_SYSTEM":"UTC","MEAN_MOTION":"15.06395446","INCLINATION":"53.0517","FILE":"3116597","EPOCH":"2021-09-15T15:00:20.056896","EPHEMERIS_TYPE":"0","PERIAPSIS":"546.207","REF_FRAME":"TEME","GP_ID":"184785636","MEAN_ANOMALY":"308.7206","MEAN_MOTION_DOT":"-0.00000557","MEAN_ELEMENT_THEORY":"SGP4","ARG_OF_PERICENTER":"51.3915","ELEMENT_SET_NO":"999","BSTAR":"-0.00001847500000","PERIOD":"95.592","TLE_LINE1":"1 45564U 20025AK  21258.62523214 -.00000557  00000-0 -18475-4 0  9994","COUNTRY_CODE":"US","APOAPSIS":"548.248","RCS_SIZE":"LARGE","ECCENTRICITY":"0.00014730","LAUNCH_DATE":"2020-04-22","RA_OF_ASC_NODE":"231.2049","CLASSIFICATION_TYPE":"U","OBJECT_NAME":"STARLINK-1356","SITE":"AFETR","CENTER_NAME":"EARTH","TLE_LINE2":"2 45564  53.0517 231.2049 0001473  51.3915 308.7206 15.06395446 78775","REV_AT_EPOCH":"7877","SEMIMAJOR_AXIS":"6925.363","OBJECT_ID":"2020-025AK","DECAY_DATE":null,"MEAN_MOTION_DDOT":"0.0000000000000","OBJECT_TYPE":"PAYLOAD"},{"OBJECT_TYPE":"PAYLOAD","DECAY_DATE":null,"OBJECT_ID":"2020-025AL","MEAN_MOTION_DDOT":"0.0000000000000","SEMIMAJOR_AXIS":"6925.365","REV_AT_EPOCH":"7877","CENTER_NAME":"EARTH","SITE":"AFETR","TLE_LINE2":"2 45565  53.0534 231.2390 0001364  59.6854 300.4270 15.06394487 78770","OBJECT_NAME":"STARLINK-1357","CLASSIFICATION_TYPE":"U","ECCENTRICITY":"0.00013640","LAUNCH_DATE":"2020-04-22","RA_OF_ASC_NODE":"231.2390","RCS_SIZE":"LARGE","APOAPSIS":"548.175","TLE_LINE1":"1 45565U 20025AL  21258.61786380 -.00000963  00000-0 -45745-4 0  9990","PERIOD":"95.592","COUNTRY_CODE":"US","ARG_OF_PERICENTER":"59.6854","BSTAR":"-0.00004574500000","ELEMENT_SET_NO":"999","MEAN_ELEMENT_THEORY":"SGP4","MEAN_MOTION_DOT":"-0.00000963","PERIAPSIS":"546.286","EPHEMERIS_TYPE":"0","MEAN_ANOMALY":"300.4270","GP_ID":"184786388","REF_FRAME":"TEME","EPOCH":"2021-09-15T14:49:43.432320","INCLINATION":"53.0534","NORAD_CAT_ID":"45565","MEAN_MOTION":"15.06394487","TIME_SYSTEM":"UTC","FILE":"3116597"},{"ECCENTRICITY":"0.00013930","LAUNCH_DATE":"2020-04-22","RA_OF_ASC_NODE":"231.1688","CLASSIFICATION_TYPE":"U","OBJECT_NAME":"STARLINK-1358","CENTER_NAME":"EARTH","SITE":"AFETR","TLE_LINE2":"2 45566  53.0560 231.1688 0001393  63.9846 296.1286 15.06393424 78778","REV_AT_EPOCH":"7877","SEMIMAJOR_AXIS":"6925.369","OBJECT_ID":"2020-025AM","DECAY_DATE":null,"MEAN_MOTION_DDOT":"0.0000000000000","OBJECT_TYPE":"PAYLOAD","INCLINATION":"53.0560","NORAD_CAT_ID":"45566","TIME_SYSTEM":"UTC","MEAN_MOTION":"15.06393424","FILE":"3116597","EPOCH":"2021-09-15T15:10:57.268128","PERIAPSIS":"546.269","EPHEMERIS_TYPE":"0","REF_FRAME":"TEME","GP_ID":"184786636","MEAN_ANOMALY":"296.1286","MEAN_ELEMENT_THEORY":"SGP4","MEAN_MOTION_DOT":"-0.00000622","ARG_OF_PERICENTER":"63.9846","BSTAR":"-0.00002286000000","ELEMENT_SET_NO":"999","PERIOD":"95.593","TLE_LINE1":"1 45566U 20025AM  21258.63260727 -.00000622  00000-0 -22860-4 0  9990","COUNTRY_CODE":"US","APOAPSIS":"548.198","RCS_SIZE":"LARGE"},{"CENTER_NAME":"EARTH","SITE":"AFETR","TLE_LINE2":"2 45567  53.0531 231.1224 0001427  61.1558 298.9574 15.06393648 78173","SEMIMAJOR_AXIS":"6925.368","REV_AT_EPOCH":"7817","ECCENTRICITY":"0.00014270","RA_OF_ASC_NODE":"231.1224","LAUNCH_DATE":"2020-04-22","OBJECT_NAME":"STARLINK-1361","CLASSIFICATION_TYPE":"U","OBJECT_TYPE":"PAYLOAD","DECAY_DATE":null,"OBJECT_ID":"2020-025AN","MEAN_MOTION_DDOT":"0.0000000000000","PERIAPSIS":"546.245","EPHEMERIS_TYPE":"0","MEAN_ANOMALY":"298.9574","GP_ID":"184763961","REF_FRAME":"TEME","MEAN_ELEMENT_THEORY":"SGP4","MEAN_MOTION_DOT":"0.00000884","INCLINATION":"53.0531","NORAD_CAT_ID":"45567","TIME_SYSTEM":"UTC","MEAN_MOTION":"15.06393648","FILE":"3116462","EPOCH":"2021-09-15T15:26:52.645632","APOAPSIS":"548.221","RCS_SIZE":"LARGE","ARG_OF_PERICENTER":"61.1558","BSTAR":"0.00007821800000","ELEMENT_SET_NO":"999","TLE_LINE1":"1 45567U 20025AN  21258.64366488  .00000884  00000-0  78218-4 0  9999","PERIOD":"95.593","COUNTRY_CODE":"US"},{"FILE":"3116597","MEAN_MOTION":"15.06398263","NORAD_CAT_ID":"45568","TIME_SYSTEM":"UTC","INCLINATION":"53.0538","EPOCH":"2021-09-15T15:14:53.511648","MEAN_ANOMALY":"293.3431","GP_ID":"184786137","REF_FRAME":"TEME","EPHEMERIS_TYPE":"0","PERIAPSIS":"546.192","MEAN_MOTION_DOT":"0.00001384","MEAN_ELEMENT_THEORY":"SGP4","ELEMENT_SET_NO":"999","BSTAR":"0.00011181000000","ARG_OF_PERICENTER":"66.7714","PERIOD":"95.592","TLE_LINE1":"1 45568U 20025AP  21258.63534157  .00001384  00000-0  11181-3 0  9990","COUNTRY_CODE":"US","APOAPSIS":"548.246","RCS_SIZE":"LARGE","LAUNCH_DATE":"2020-04-22","RA_OF_ASC_NODE":"231.1612","ECCENTRICITY":"0.00014830","CLASSIFICATION_TYPE":"U","OBJECT_NAME":"STARLINK-1363","TLE_LINE2":"2 45568  53.0538 231.1612 0001483  66.7714 293.3431 15.06398263 78774","SITE":"AFETR","CENTER_NAME":"EARTH","REV_AT_EPOCH":"7877","SEMIMAJOR_AXIS":"6925.354","MEAN_MOTION_DDOT":"0.0000000000000","DECAY_DATE":null,"OBJECT_ID":"2020-025AP","OBJECT_TYPE":"PAYLOAD"},{"MEAN_ELEMENT_THEORY":"SGP4","MEAN_MOTION_DOT":"0.00003035","GP_ID":"184786889","MEAN_ANOMALY":"283.6589","REF_FRAME":"TEME","PERIAPSIS":"546.200","EPHEMERIS_TYPE":"0","EPOCH":"2021-09-15T15:32:11.692320","FILE":"3116597","INCLINATION":"53.0536","TIME_SYSTEM":"UTC","NORAD_CAT_ID":"45569","MEAN_MOTION":"15.06407604","RCS_SIZE":"LARGE","APOAPSIS":"548.181","TLE_LINE1":"1 45569U 20025AQ  21258.64735755  .00003035  00000-0  22250-3 0  9993","COUNTRY_CODE":"US","PERIOD":"95.592","BSTAR":"0.00022250000000","ELEMENT_SET_NO":"999","ARG_OF_PERICENTER":"76.4559","REV_AT_EPOCH":"7877","SEMIMAJOR_AXIS":"6925.325","TLE_LINE2":"2 45569  53.0536 231.1049 0001430  76.4559 283.6589 15.06407604 78770","CENTER_NAME":"EARTH","SITE":"AFETR","CLASSIFICATION_TYPE":"U","OBJECT_NAME":"STARLINK-1366","LAUNCH_DATE":"2020-04-22","RA_OF_ASC_NODE":"231.1049","ECCENTRICITY":"0.00014300","OBJECT_TYPE":"PAYLOAD","MEAN_MOTION_DDOT":"0.0000000000000","OBJECT_ID":"2020-025AQ","DECAY_DATE":null},{"CLASSIFICATION_TYPE":"U","OBJECT_NAME":"STARLINK-1376","LAUNCH_DATE":"2020-04-22","RA_OF_ASC_NODE":"232.6289","ECCENTRICITY":"0.00014690","REV_AT_EPOCH":"7872","SEMIMAJOR_AXIS":"6925.376","TLE_LINE2":"2 45570  53.0533 232.6289 0001469  82.7239 277.3917 15.06391102 78723","CENTER_NAME":"EARTH","SITE":"AFETR","MEAN_MOTION_DDOT":"0.0000000000000","DECAY_DATE":null,"OBJECT_ID":"2020-025AR","OBJECT_TYPE":"PAYLOAD","EPOCH":"2021-09-15T07:23:52.614240","FILE":"3116289","INCLINATION":"53.0533","NORAD_CAT_ID":"45570","TIME_SYSTEM":"UTC","MEAN_MOTION":"15.06391102","MEAN_ELEMENT_THEORY":"SGP4","MEAN_MOTION_DOT":"-0.00000862","MEAN_ANOMALY":"277.3917","GP_ID":"184757076","REF_FRAME":"TEME","PERIAPSIS":"546.223","EPHEMERIS_TYPE":"0","COUNTRY_CODE":"US","TLE_LINE1":"1 45570U 20025AR  21258.30824785 -.00000862  00000-0 -38995-4 0  9991","PERIOD":"95.593","BSTAR":"-0.00003899500000","ELEMENT_SET_NO":"999","ARG_OF_PERICENTER":"82.7239","RCS_SIZE":"LARGE","APOAPSIS":"548.258"},{"MEAN_MOTION_DDOT":"0.0000000000000","OBJECT_ID":"2020-025AS","DECAY_DATE":null,"OBJECT_TYPE":"PAYLOAD","CLASSIFICATION_TYPE":"U","OBJECT_NAME":"STARLINK-1261","LAUNCH_DATE":"2020-04-22","RA_OF_ASC_NODE":"221.3690","ECCENTRICITY":"0.00012300","SEMIMAJOR_AXIS":"6925.364","REV_AT_EPOCH":"7892","TLE_LINE2":"2 45571  53.0537 221.3690 0001230  64.9365 295.1752 15.06395039 78927","SITE":"AFETR","CENTER_NAME":"EARTH","COUNTRY_CODE":"US","TLE_LINE1":"1 45571U 20025AS  21258.58929816 -.00000159  00000-0  82302-5 0  9993","PERIOD":"95.592","ELEMENT_SET_NO":"999","BSTAR":"0.00000823020000","ARG_OF_PERICENTER":"64.9365","RCS_SIZE":"LARGE","APOAPSIS":"548.081","EPOCH":"2021-09-15T14:08:35.361024","FILE":"3116597","TIME_SYSTEM":"UTC","NORAD_CAT_ID":"45571","MEAN_MOTION":"15.06395039","INCLINATION":"53.0537","MEAN_MOTION_DOT":"-0.00000159","MEAN_ELEMENT_THEORY":"SGP4","MEAN_ANOMALY":"295.1752","GP_ID":"184785888","REF_FRAME":"TEME","EPHEMERIS_TYPE":"0","PERIAPSIS":"546.377"}];
